      2.10          N: GNSS NAV DATA                        RINEX VERSION / TYPE
fic2rin                                 10/29/2018 00:22:57 PGM / RUN BY / DATE
                                                            END OF HEADER
 3 18 10 28  8  0  0.0 1.540784724057e-04 4.320099833421e-12 0.000000000000e+00
    8.300000000000e+01 8.375000000000e+00 4.854487923193e-09-1.201973519365e+00
    3.837049007416e-07 1.832634210587e-03 6.316229701042e-06 5.153641254425e+03
    2.880000000000e+04 9.313225746155e-08 1.823173693177e+00 1.862645149231e-09
    9.613468961627e-01 2.600000000000e+02 6.910239839226e-01-8.134267396316e-09
    1.835790753768e-10 1.000000000000e+00 2.025000000000e+03 0.000000000000e+00
    3.400000000000e+00 0.000000000000e+00 2.328306436539e-09 8.300000000000e+01
    2.160600000000e+04 4.000000000000e+00
 7 18 10 28  8  0  0.0 9.883940219879e-05-6.821210263297e-12 0.000000000000e+00
    3.600000000000e+01 1.114062500000e+02 4.371253508826e-09-7.372619675202e-01
    5.945563316345e-06 1.209604658652e-02 1.029670238495e-05 5.153642726898e+03
    2.880000000000e+04 1.620501279831e-07-2.350236005838e+00 1.750886440277e-07
    9.573799699643e-01 1.784687500000e+02-2.484464050003e+00-8.083550998060e-09
    3.214419607765e-11 1.000000000000e+00 2.025000000000e+03 0.000000000000e+00
    2.400000000000e+00 0.000000000000e+00-1.117587089539e-08 3.600000000000e+01
    2.160600000000e+04 4.000000000000e+00
 8 18 10 28  8  0  0.0-1.201732084155e-04-1.364242052659e-12 0.000000000000e+00
    1.530000000000e+02-1.207187500000e+02 4.481972406427e-09 2.485937414780e+00
   -6.085261702538e-06 3.694087732583e-03 5.424022674561e-06 5.153649175644e+03
    2.880000000000e+04-1.862645149231e-09-2.848992597463e-01 1.899898052216e-07
    9.701155905569e-01 2.786875000000e+02-4.162369449795e-01-8.211770624636e-09
   -2.585821995580e-10 1.000000000000e+00 2.025000000000e+03 0.000000000000e+00
    2.400000000000e+00 0.000000000000e+00 5.122274160385e-09 1.530000000000e+02
    2.160600000000e+04 4.000000000000e+00
 4 18 10 28  8  0  0.0-9.899027645588e-06-2.546585164964e-11 0.000000000000e+00
    5.500000000000e+01-1.079375000000e+02 4.677337687032e-09 2.279586527689e+00
   -5.627050995827e-06 1.362298801541e-02 4.926696419716e-06 5.153673461914e+03
    2.880000000000e+04-3.539025783539e-07-3.724011240702e-01-1.806765794754e-07
    9.590422062431e-01 2.855937500000e+02 5.729280918633e-01-8.203555996750e-09
   -1.960795960737e-10 1.000000000000e+00 2.025000000000e+03 0.000000000000e+00
    2.400000000000e+00 6.300000000000e+01-5.587935447693e-09 5.500000000000e+01
    2.160600000000e+04 4.000000000000e+00
27 18 10 28  8  0  0.0-1.058029010892e-05-4.774847184308e-12 0.000000000000e+00
    9.700000000000e+01-1.115625000000e+02 4.274106605125e-09 2.100750614912e+00
   -5.710870027542e-06 6.115400814451e-03 5.738809704781e-06 5.153699703217e+03
    2.880000000000e+04-2.421438694000e-07-2.752196428371e-01 5.401670932770e-08
    9.783529223834e-01 2.780937500000e+02 4.404131057508e-01-8.059264272135e-09
   -2.171519023912e-10 1.000000000000e+00 2.025000000000e+03 0.000000000000e+00
    2.400000000000e+00 0.000000000000e+00 1.862645149231e-09 9.700000000000e+01
    2.160600000000e+04 4.000000000000e+00
25 18 10 28  8  0  0.0-6.683245301247e-04-5.684341886081e-12 0.000000000000e+00
    8.500000000000e+01 4.890625000000e+01 4.512687971568e-09-1.712257097924e+00
    2.576038241386e-06 7.532161660492e-03 2.320855855942e-06 5.153574214935e+03
    2.880000000000e+04 1.173466444016e-07-1.315630676590e+00-1.490116119385e-08
    9.723907383088e-01 3.397812500000e+02 8.553586992946e-01-8.253200921803e-09
    2.492960984689e-10 1.000000000000e+00 2.025000000000e+03 0.000000000000e+00
    2.400000000000e+00 0.000000000000e+00 5.587935447693e-09 8.500000000000e+01
    2.160600000000e+04 4.000000000000e+00
14 18 10 28  8  0  0.0-9.635323658586e-05 3.410605131648e-13 0.000000000000e+00
    1.080000000000e+02-1.037500000000e+01 4.426970115360e-09 1.832445264198e+00
   -6.016343832016e-07 1.001345319673e-02 9.240582585335e-06 5.153639663696e+03
    2.880000000000e+04-9.685754776001e-08 2.947299165103e+00-2.197921276093e-07
    9.611548749985e-01 1.999687500000e+02-1.944893740951e+00-7.894971714404e-09
   -4.482329564161e-10 1.000000000000e+00 2.025000000000e+03 0.000000000000e+00
    2.400000000000e+00 0.000000000000e+00-9.778887033463e-09 1.080000000000e+02
    2.160600000000e+04 4.000000000000e+00
13 18 10 28  8  0  0.0-8.598528802395e-05 9.094947017729e-13 0.000000000000e+00
    8.400000000000e+01-5.593750000000e+00 4.348752571572e-09 9.213596806375e-01
   -3.408640623093e-07 3.534813644364e-03 9.266659617424e-06 5.153667375565e+03
    2.880000000000e+04-2.607703208923e-08 2.990228967199e+00-5.587935447693e-08
    9.686172669342e-01 2.050625000000e+02 1.430723063244e+00-7.937473484774e-09
   -5.078782980268e-10 1.000000000000e+00 2.025000000000e+03 0.000000000000e+00
    2.400000000000e+00 0.000000000000e+00-1.117587089539e-08 8.400000000000e+01
    2.160600000000e+04 4.000000000000e+00
15 18 10 28  8  0  0.0-3.416803665459e-04 1.250555214938e-12 0.000000000000e+00
    8.100000000000e+01-1.993750000000e+01 5.425583140173e-09 1.184663235442e+00
   -8.810311555862e-07 1.093270303681e-02 7.947906851768e-06 5.153581035614e+03
    2.880000000000e+04-1.303851604462e-07 2.781697732373e+00 4.470348358154e-08
    9.284049083167e-01 2.128437500000e+02 7.231533222385e-01-8.541070055565e-09
   -5.739524788531e-10 1.000000000000e+00 2.025000000000e+03 0.000000000000e+00
    2.400000000000e+00 0.000000000000e+00-1.117587089539e-08 8.100000000000e+01
    2.160600000000e+04 4.000000000000e+00
11 18 10 28  8  0  0.0-7.056905888021e-04 3.637978807092e-12 0.000000000000e+00
    9.700000000000e+01-9.628125000000e+01 5.681308077857e-09-7.555277900336e-01
   -5.006790161133e-06 1.686405879445e-02 1.064315438271e-05 5.153671989441e+03
    2.880000000000e+04-2.104789018631e-07 3.432267851847e-01-2.421438694000e-08
    9.073724268351e-01 1.459375000000e+02 1.834231079018e+00-8.897156316559e-09
    1.132190017402e-10 1.000000000000e+00 2.025000000000e+03 0.000000000000e+00
    3.400000000000e+00 0.000000000000e+00-1.210719347000e-08 9.700000000000e+01
    2.160600000000e+04 4.000000000000e+00
 9 18 10 28  8  0  0.0 4.971600137651e-04-2.955857780762e-12 0.000000000000e+00
    6.000000000000e+01-1.387500000000e+01 4.697338520147e-09 2.555127295674e+00
   -6.575137376785e-07 1.286061597057e-03 8.692964911461e-06 5.153796329498e+03
    2.880000000000e+04 1.490116119385e-08 2.856269658159e+00 5.774199962616e-08
    9.529328204255e-01 2.068437500000e+02 1.686228168960e+00-8.001047561461e-09
   -4.857345185067e-10 1.000000000000e+00 2.025000000000e+03 0.000000000000e+00
    2.400000000000e+00 0.000000000000e+00 1.396983861923e-09 6.000000000000e+01
    2.160600000000e+04 4.000000000000e+00
23 18 10 28  8  0  0.0-2.076439559460e-04 9.094947017729e-13 0.000000000000e+00
    7.800000000000e+01-1.287500000000e+01 4.995922385935e-09 6.979923923105e-01
   -5.066394805908e-07 1.263466849923e-02 8.640810847282e-06 5.153702720642e+03
    2.880000000000e+04-2.011656761169e-07 2.853194041133e+00 1.471489667892e-07
    9.437430557835e-01 2.066250000000e+02-2.322158931583e+00-8.295345534438e-09
   -6.125255141463e-10 1.000000000000e+00 2.025000000000e+03 0.000000000000e+00
    2.400000000000e+00 0.000000000000e+00-2.002343535423e-08 7.800000000000e+01
    2.160600000000e+04 4.000000000000e+00
19 18 10 28  8  0  0.0-3.893100656569e-04 3.637978807092e-12 0.000000000000e+00
    7.400000000000e+01-1.118750000000e+02 4.113385624736e-09-1.435407325471e+00
   -5.587935447693e-06 9.513073251583e-03 6.105750799179e-06 5.153609811783e+03
    2.880000000000e+04 1.247972249985e-07-1.736668789969e-01 2.440065145493e-07
    9.814114364342e-01 2.718437500000e+02 1.304265486933e+00-7.983189674751e-09
   -2.410814705824e-10 1.000000000000e+00 2.025000000000e+03 0.000000000000e+00
    2.400000000000e+00 0.000000000000e+00-1.536682248116e-08 7.400000000000e+01
    2.160600000000e+04 4.000000000000e+00
21 18 10 28  8  0  0.0-3.139907494187e-04 6.252776074689e-12 0.000000000000e+00
    7.200000000000e+01-3.356250000000e+01 4.598405827775e-09-1.850937315289e+00
   -1.592561602592e-06 2.438479021657e-02 1.084990799427e-05 5.153602703094e+03
    2.880000000000e+04 2.812594175339e-07 7.216877709067e-01 5.327165126801e-07
    9.457809430926e-01 1.573125000000e+02-1.516704541678e+00-7.798539126171e-09
    1.896507568581e-10 1.000000000000e+00 2.025000000000e+03 0.000000000000e+00
    2.400000000000e+00 0.000000000000e+00-9.778887033463e-09 7.200000000000e+01
    2.160600000000e+04 4.000000000000e+00
32 18 10 28  8  0  0.0-3.777947276831e-04 1.330136001343e-11 0.000000000000e+00
    8.400000000000e+01-1.306250000000e+01 4.540546274835e-09 2.858709433934e+00
   -5.885958671570e-07 2.318288316019e-03 8.653849363327e-06 5.153716688156e+03
    2.880000000000e+04-1.676380634308e-08 2.861971435501e+00 3.725290298462e-09
    9.572648105160e-01 2.090312500000e+02-2.587034877552e+00-7.947473901331e-09
   -4.428755904031e-10 1.000000000000e+00 2.025000000000e+03 0.000000000000e+00
    2.400000000000e+00 0.000000000000e+00 4.656612873077e-10 8.400000000000e+01
    2.160600000000e+04 4.000000000000e+00
16 18 10 28  8  0  0.0 1.935753971338e-06-2.046363078989e-12 0.000000000000e+00
    6.300000000000e+01 4.184375000000e+01 4.270535027783e-09 3.054427048301e+00
    2.143904566765e-06 1.007258507889e-02 1.912936568260e-06 5.153717149734e+03
    2.880000000000e+04-2.421438694000e-08-1.234999547465e+00-1.415610313416e-07
    9.852616832124e-01 3.589062500000e+02 5.196933953388e-01-8.052835432919e-09
    1.807218135032e-10 1.000000000000e+00 2.025000000000e+03 0.000000000000e+00
    2.400000000000e+00 0.000000000000e+00-1.071020960808e-08 6.300000000000e+01
    2.160600000000e+04 4.000000000000e+00
